[{"OBJECT_NAME":"STARLINK-3899","OBJECT_ID":"2022-049G","EPOCH":"2026-03-09T08:41:45.053664","MEAN_MOTION":15.08834979,"ECCENTRICITY":0.00012723,"INCLINATION":53.2168,"RA_OF_ASC_NODE":70.5798,"ARG_OF_PERICENTER":85.0893,"MEAN_ANOMALY":275.0245,"EPHEMERIS_TYPE":0,"CLASSIFICATION_TYPE":"U","NORAD_CAT_ID":52457,"ELEMENT_SET_NO":999,"REV_AT_EPOCH":21206,"BSTAR":3.2694109e-5,"MEAN_MOTION_DOT":2.32e-6,"MEAN_MOTION_DDOT":0},{"OBJECT_NAME":"OBJECT G","OBJECT_ID":"2024-205G","EPOCH":"2026-03-09T23:05:54.449664","MEAN_MOTION":15.09392775,"ECCENTRICITY":0.00211709,"INCLINATION":97.4199,"RA_OF_ASC_NODE":141.9686,"ARG_OF_PERICENTER":130.0324,"MEAN_ANOMALY":230.2768,"EPHEMERIS_TYPE":0,"CLASSIFICATION_TYPE":"U","NORAD_CAT_ID":61900,"ELEMENT_SET_NO":999,"REV_AT_EPOCH":7318,"BSTAR":0.00059967322,"MEAN_MOTION_DOT":9.576e-5,"MEAN_MOTION_DDOT":0}]
